{
  "type": "FeatureCollection",
  "features": [
    {
      "type": "Feature",
      "properties": {
        "norad_id": 34875,
        "name": "COSMOS 2251 DEB",
        "group": "cosmos-2251-debris",
        "lat": 54.10825881933378,
        "lon": 165.12882485438584,
        "alt_km": 733.8601704668163,
        "timestamp": "2025-12-21T11:31:43.254833+00:00",
        "meta_object_name": "COSMOS 2251 DEB",
        "meta_object_id": "1993-036ACN",
        "meta_epoch": "2025-12-19T11:28:39.014112",
        "meta_mean_motion": 14.48947014,
        "meta_eccentricity": 0.0016196,
        "meta_inclination": 74.0433,
        "meta_ra_of_asc_node": 145.5897,
        "meta_arg_of_pericenter": 268.763,
        "meta_mean_anomaly": 149.3216,
        "meta_ephemeris_type": 0,
        "meta_classification_type": "U",
        "meta_norad_cat_id": 34875,
        "meta_element_set_no": 999,
        "meta_rev_at_epoch": 87853,
        "meta_bstar": 0.00033791,
        "meta_mean_motion_dot": 1.255e-05,
        "meta_mean_motion_ddot": 0,
        "tle_line1": "1 34875U 93036ACN 25353.47822933  .00001255  00000+0  33791-3 0  9992",
        "tle_line2": "2 34875  74.0433 145.5897 0016196 268.7630 149.3216 14.48947014878533"
      },
      "geometry": {
        "type": "Point",
        "coordinates": [
          165.12882485438584,
          54.10825881933378
        ]
      }
    },
    {
      "type": "Feature",
      "properties": {
        "norad_id": 34878,
        "name": "COSMOS 2251 DEB",
        "group": "cosmos-2251-debris",
        "lat": 40.53629877486307,
        "lon": -160.77944737339374,
        "alt_km": 1252.6758367434022,
        "timestamp": "2025-12-21T11:31:43.254844+00:00",
        "meta_object_name": "COSMOS 2251 DEB",
        "meta_object_id": "1993-036ACR",
        "meta_epoch": "2025-12-20T02:51:54.266112",
        "meta_mean_motion": 13.44200085,
        "meta_eccentricity": 0.04356019,
        "meta_inclination": 73.965,
        "meta_ra_of_asc_node": 35.6157,
        "meta_arg_of_pericenter": 17.6827,
        "meta_mean_anomaly": 11.8411,
        "meta_ephemeris_type": 0,
        "meta_classification_type": "U",
        "meta_norad_cat_id": 34878,
        "meta_element_set_no": 999,
        "meta_rev_at_epoch": 81372,
        "meta_bstar": 0.00054186737,
        "meta_mean_motion_dot": 5.36e-06,
        "meta_mean_motion_ddot": 0,
        "tle_line1": "1 34878U 93036ACR 25354.11937808  .00000536  00000+0  54187-3 0  9998",
        "tle_line2": "2 34878  73.9650  35.6157 0435601  17.6827  11.8411 13.44200085813723"
      },
      "geometry": {
        "type": "Point",
        "coordinates": [
          -160.77944737339374,
          40.53629877486307
        ]
      }
    },
    {
      "type": "Feature",
      "properties": {
        "norad_id": 34882,
        "name": "COSMOS 2251 DEB",
        "group": "cosmos-2251-debris",
        "lat": 37.77993859964233,
        "lon": -138.30831884038014,
        "alt_km": 660.5083305918588,
        "timestamp": "2025-12-21T11:31:43.254854+00:00",
        "meta_object_name": "COSMOS 2251 DEB",
        "meta_object_id": "1993-036ACV",
        "meta_epoch": "2025-12-20T00:51:13.406976",
        "meta_mean_motion": 14.61609371,
        "meta_eccentricity": 0.00831704,
        "meta_inclination": 74.0454,
        "meta_ra_of_asc_node": 211.6418,
        "meta_arg_of_pericenter": 336.8506,
        "meta_mean_anomaly": 22.892,
        "meta_ephemeris_type": 0,
        "meta_classification_type": "U",
        "meta_norad_cat_id": 34882,
        "meta_element_set_no": 999,
        "meta_rev_at_epoch": 88631,
        "meta_bstar": 9.3819034e-05,
        "meta_mean_motion_dot": 4.56e-06,
        "meta_mean_motion_ddot": 0,
        "tle_line1": "1 34882U 93036ACV 25354.03557184  .00000456  00000+0  93819-4 0  9996",
        "tle_line2": "2 34882  74.0454 211.6418 0083170 336.8506  22.8920 14.61609371886311"
      },
      "geometry": {
        "type": "Point",
        "coordinates": [
          -138.30831884038014,
          37.77993859964233
        ]
      }
    },
    {
      "type": "Feature",
      "properties": {
        "norad_id": 34883,
        "name": "COSMOS 2251 DEB",
        "group": "cosmos-2251-debris",
        "lat": 46.07345741447007,
        "lon": -150.66618265278203,
        "alt_km": 725.0081010226322,
        "timestamp": "2025-12-21T11:31:43.254864+00:00",
        "meta_object_name": "COSMOS 2251 DEB",
        "meta_object_id": "1993-036ACW",
        "meta_epoch": "2025-12-18T13:27:07.209504",
        "meta_mean_motion": 14.51672805,
        "meta_eccentricity": 0.00951028,
        "meta_inclination": 74.2022,
        "meta_ra_of_asc_node": 51.868,
        "meta_arg_of_pericenter": 236.3156,
        "meta_mean_anomaly": 122.8912,
        "meta_ephemeris_type": 0,
        "meta_classification_type": "U",
        "meta_norad_cat_id": 34883,
        "meta_element_set_no": 999,
        "meta_rev_at_epoch": 86524,
        "meta_bstar": 0.0028915699,
        "meta_mean_motion_dot": 0.00012297,
        "meta_mean_motion_ddot": 0,
        "tle_line1": "1 34883U 93036ACW 25352.56050011  .00012297  00000+0  28916-2 0  9990",
        "tle_line2": "2 34883  74.2022  51.8680 0095102 236.3156 122.8912 14.51672805865245"
      },
      "geometry": {
        "type": "Point",
        "coordinates": [
          -150.66618265278203,
          46.07345741447007
        ]
      }
    },
    {
      "type": "Feature",
      "properties": {
        "norad_id": 34884,
        "name": "COSMOS 2251 DEB",
        "group": "cosmos-2251-debris",
        "lat": -20.312570266845697,
        "lon": -134.68378621496092,
        "alt_km": 603.329459483688,
        "timestamp": "2025-12-21T11:31:43.254875+00:00",
        "meta_object_name": "COSMOS 2251 DEB",
        "meta_object_id": "1993-036ACX",
        "meta_epoch": "2025-12-21T04:28:30.554400",
        "meta_mean_motion": 14.90404784,
        "meta_eccentricity": 0.0002754,
        "meta_inclination": 74.017,
        "meta_ra_of_asc_node": 39.8148,
        "meta_arg_of_pericenter": 43.1386,
        "meta_mean_anomaly": 21.6739,
        "meta_ephemeris_type": 0,
        "meta_classification_type": "U",
        "meta_norad_cat_id": 34884,
        "meta_element_set_no": 999,
        "meta_rev_at_epoch": 87931,
        "meta_bstar": 0.001453,
        "meta_mean_motion_dot": 0.0001415,
        "meta_mean_motion_ddot": 0,
        "tle_line1": "1 34884U 93036ACX 25355.18646475  .00014150  00000+0  14530-2 0  9994",
        "tle_line2": "2 34884  74.0170  39.8148 0002754  43.1386  21.6739 14.90404784879311"
      },
      "geometry": {
        "type": "Point",
        "coordinates": [
          -134.68378621496092,
          -20.312570266845697
        ]
      }
    },
    {
      "type": "Feature",
      "properties": {
        "norad_id": 34885,
        "name": "COSMOS 2251 DEB",
        "group": "cosmos-2251-debris",
        "lat": -48.099705813776,
        "lon": 147.95179153437414,
        "alt_km": 721.340253084858,
        "timestamp": "2025-12-21T11:31:43.254885+00:00",
        "meta_object_name": "COSMOS 2251 DEB",
        "meta_object_id": "1993-036ACY",
        "meta_epoch": "2025-12-20T21:27:48.737376",
        "meta_mean_motion": 14.51541115,
        "meta_eccentricity": 0.0015083,
        "meta_inclination": 74.0298,
        "meta_ra_of_asc_node": 167.6672,
        "meta_arg_of_pericenter": 253.0323,
        "meta_mean_anomaly": 234.9925,
        "meta_ephemeris_type": 0,
        "meta_classification_type": "U",
        "meta_norad_cat_id": 34885,
        "meta_element_set_no": 999,
        "meta_rev_at_epoch": 87597,
        "meta_bstar": 0.00047903,
        "meta_mean_motion_dot": 1.892e-05,
        "meta_mean_motion_ddot": 0,
        "tle_line1": "1 34885U 93036ACY 25354.89431409  .00001892  00000+0  47903-3 0  9991",
        "tle_line2": "2 34885  74.0298 167.6672 0015083 253.0323 234.9925 14.51541115875978"
      },
      "geometry": {
        "type": "Point",
        "coordinates": [
          147.95179153437414,
          -48.099705813776
        ]
      }
    },
    {
      "type": "Feature",
      "properties": {
        "norad_id": 34886,
        "name": "COSMOS 2251 DEB",
        "group": "cosmos-2251-debris",
        "lat": -73.920896425849,
        "lon": 69.19112022800523,
        "alt_km": 448.38919964973957,
        "timestamp": "2025-12-21T11:31:43.254895+00:00",
        "meta_object_name": "COSMOS 2251 DEB",
        "meta_object_id": "1993-036ACZ",
        "meta_epoch": "2025-12-19T05:20:10.106016",
        "meta_mean_motion": 15.39455892,
        "meta_eccentricity": 0.0031395,
        "meta_inclination": 73.9504,
        "meta_ra_of_asc_node": 166.9286,
        "meta_arg_of_pericenter": 349.772,
        "meta_mean_anomaly": 10.2844,
        "meta_ephemeris_type": 0,
        "meta_classification_type": "U",
        "meta_norad_cat_id": 34886,
        "meta_element_set_no": 999,
        "meta_rev_at_epoch": 63098,
        "meta_bstar": 0.0012728,
        "meta_mean_motion_dot": 0.00051055,
        "meta_mean_motion_ddot": 0,
        "tle_line1": "1 34886U 93036ACZ 25353.22233919  .00051055  00000+0  12728-2 0  9996",
        "tle_line2": "2 34886  73.9504 166.9286 0031395 349.7720  10.2844 15.39455892630986"
      },
      "geometry": {
        "type": "Point",
        "coordinates": [
          69.19112022800523,
          -73.920896425849
        ]
      }
    }
  ]
}